{
  "type": "FeatureCollection",
  "features": [
    {
      "type": "Feature",
      "properties": {
        "norad_id": 34316,
        "name": "COSMOS 2251 DEB",
        "group": "cosmos-2251-debris",
        "lat": -8.614705465624832,
        "lon": -54.037838820076985,
        "alt_km": 589.4704752503503,
        "timestamp": "2025-12-26T22:28:06.179452+00:00",
        "meta_object_name": "COSMOS 2251 DEB",
        "meta_object_id": "1993-036NN",
        "meta_epoch": "2025-12-25T14:19:44.175648",
        "meta_mean_motion": 14.92240854,
        "meta_eccentricity": 0.000919,
        "meta_inclination": 74.0656,
        "meta_ra_of_asc_node": 311.1258,
        "meta_arg_of_pericenter": 32.3565,
        "meta_mean_anomaly": 327.818,
        "meta_ephemeris_type": 0,
        "meta_classification_type": "U",
        "meta_norad_cat_id": 34316,
        "meta_element_set_no": 999,
        "meta_rev_at_epoch": 89401,
        "meta_bstar": 0.0019689,
        "meta_mean_motion_dot": 0.00020121,
        "meta_mean_motion_ddot": 0,
        "tle_line1": "1 34316U 93036NN  25359.59703907  .00020121  00000+0  19689-2 0  9992",
        "tle_line2": "2 34316  74.0656 311.1258 0009190  32.3565 327.8180 14.92240854894011"
      },
      "geometry": {
        "type": "Point",
        "coordinates": [
          -54.037838820076985,
          -8.614705465624832
        ]
      }
    },
    {
      "type": "Feature",
      "properties": {
        "norad_id": 34317,
        "name": "COSMOS 2251 DEB",
        "group": "cosmos-2251-debris",
        "lat": 70.75118776398014,
        "lon": 136.71977519015945,
        "alt_km": 1052.6525587079286,
        "timestamp": "2025-12-26T22:28:06.179462+00:00",
        "meta_object_name": "COSMOS 2251 DEB",
        "meta_object_id": "1993-036NP",
        "meta_epoch": "2025-12-26T12:11:02.416704",
        "meta_mean_motion": 13.65140472,
        "meta_eccentricity": 0.0337029,
        "meta_inclination": 73.9242,
        "meta_ra_of_asc_node": 13.0915,
        "meta_arg_of_pericenter": 359.7045,
        "meta_mean_anomaly": 152.0356,
        "meta_ephemeris_type": 0,
        "meta_classification_type": "U",
        "meta_norad_cat_id": 34317,
        "meta_element_set_no": 999,
        "meta_rev_at_epoch": 83807,
        "meta_bstar": 0.00071407,
        "meta_mean_motion_dot": 8.3e-06,
        "meta_mean_motion_ddot": 0,
        "tle_line1": "1 34317U 93036NP  25360.50766686  .00000830  00000+0  71407-3 0  9991",
        "tle_line2": "2 34317  73.9242  13.0915 0337029 359.7045 152.0356 13.65140472838074"
      },
      "geometry": {
        "type": "Point",
        "coordinates": [
          136.71977519015945,
          70.75118776398014
        ]
      }
    },
    {
      "type": "Feature",
      "properties": {
        "norad_id": 34321,
        "name": "COSMOS 2251 DEB",
        "group": "cosmos-2251-debris",
        "lat": 21.16096172804759,
        "lon": -56.675841549802165,
        "alt_km": 726.8640238448506,
        "timestamp": "2025-12-26T22:28:06.179473+00:00",
        "meta_object_name": "COSMOS 2251 DEB",
        "meta_object_id": "1993-036NT",
        "meta_epoch": "2025-12-26T12:09:17.027712",
        "meta_mean_motion": 14.50115396,
        "meta_eccentricity": 0.0016053,
        "meta_inclination": 74.0288,
        "meta_ra_of_asc_node": 130.4961,
        "meta_arg_of_pericenter": 259.328,
        "meta_mean_anomaly": 176.2079,
        "meta_ephemeris_type": 0,
        "meta_classification_type": "U",
        "meta_norad_cat_id": 34321,
        "meta_element_set_no": 999,
        "meta_rev_at_epoch": 88686,
        "meta_bstar": 0.00063866,
        "meta_mean_motion_dot": 2.456e-05,
        "meta_mean_motion_ddot": 0,
        "tle_line1": "1 34321U 93036NT  25360.50644708  .00002456  00000+0  63866-3 0  9992",
        "tle_line2": "2 34321  74.0288 130.4961 0016053 259.3280 176.2079 14.50115396886865"
      },
      "geometry": {
        "type": "Point",
        "coordinates": [
          -56.675841549802165,
          21.16096172804759
        ]
      }
    },
    {
      "type": "Feature",
      "properties": {
        "norad_id": 34323,
        "name": "COSMOS 2251 DEB",
        "group": "cosmos-2251-debris",
        "lat": -12.38939853157756,
        "lon": 91.62010778252824,
        "alt_km": 683.8021825097094,
        "timestamp": "2025-12-26T22:28:06.179483+00:00",
        "meta_object_name": "COSMOS 2251 DEB",
        "meta_object_id": "1993-036NV",
        "meta_epoch": "2025-12-26T12:49:36.204384",
        "meta_mean_motion": 14.74845402,
        "meta_eccentricity": 0.0057006,
        "meta_inclination": 73.9524,
        "meta_ra_of_asc_node": 96.0339,
        "meta_arg_of_pericenter": 136.6088,
        "meta_mean_anomaly": 238.8308,
        "meta_ephemeris_type": 0,
        "meta_classification_type": "U",
        "meta_norad_cat_id": 34323,
        "meta_element_set_no": 999,
        "meta_rev_at_epoch": 88643,
        "meta_bstar": 0.0021055,
        "meta_mean_motion_dot": 0.00014487,
        "meta_mean_motion_ddot": 0,
        "tle_line1": "1 34323U 93036NV  25360.53444681  .00014487  00000+0  21055-2 0  9995",
        "tle_line2": "2 34323  73.9524  96.0339 0057006 136.6088 238.8308 14.74845402886437"
      },
      "geometry": {
        "type": "Point",
        "coordinates": [
          91.62010778252824,
          -12.38939853157756
        ]
      }
    },
    {
      "type": "Feature",
      "properties": {
        "norad_id": 34325,
        "name": "COSMOS 2251 DEB",
        "group": "cosmos-2251-debris",
        "lat": -41.263658196425496,
        "lon": 2.4991696112981936,
        "alt_km": 777.9704366197157,
        "timestamp": "2025-12-26T22:28:06.179494+00:00",
        "meta_object_name": "COSMOS 2251 DEB",
        "meta_object_id": "1993-036NX",
        "meta_epoch": "2025-12-26T18:06:47.737152",
        "meta_mean_motion": 14.04565737,
        "meta_eccentricity": 0.0191235,
        "meta_inclination": 73.8709,
        "meta_ra_of_asc_node": 168.111,
        "meta_arg_of_pericenter": 182.8631,
        "meta_mean_anomaly": 201.7884,
        "meta_ephemeris_type": 0,
        "meta_classification_type": "U",
        "meta_norad_cat_id": 34325,
        "meta_element_set_no": 999,
        "meta_rev_at_epoch": 85712,
        "meta_bstar": 0.0022135,
        "meta_mean_motion_dot": 4.139e-05,
        "meta_mean_motion_ddot": 0,
        "tle_line1": "1 34325U 93036NX  25360.75471918  .00004139  00000+0  22135-2 0  9997",
        "tle_line2": "2 34325  73.8709 168.1110 0191235 182.8631 201.7884 14.04565737857126"
      },
      "geometry": {
        "type": "Point",
        "coordinates": [
          2.4991696112981936,
          -41.263658196425496
        ]
      }
    },
    {
      "type": "Feature",
      "properties": {
        "norad_id": 34327,
        "name": "COSMOS 2251 DEB",
        "group": "cosmos-2251-debris",
        "lat": 45.6393691161998,
        "lon": 160.50456178690237,
        "alt_km": 595.4734249395406,
        "timestamp": "2025-12-26T22:28:06.179504+00:00",
        "meta_object_name": "COSMOS 2251 DEB",
        "meta_object_id": "1993-036NZ",
        "meta_epoch": "2025-12-26T12:56:09.350304",
        "meta_mean_motion": 14.89499504,
        "meta_eccentricity": 0.0033761,
        "meta_inclination": 73.994,
        "meta_ra_of_asc_node": 144.2308,
        "meta_arg_of_pericenter": 318.1133,
        "meta_mean_anomaly": 120.7321,
        "meta_ephemeris_type": 0,
        "meta_classification_type": "U",
        "meta_norad_cat_id": 34327,
        "meta_element_set_no": 999,
        "meta_rev_at_epoch": 89713,
        "meta_bstar": 0.0014915,
        "meta_mean_motion_dot": 0.00014352,
        "meta_mean_motion_ddot": 0,
        "tle_line1": "1 34327U 93036NZ  25360.53899711  .00014352  00000+0  14915-2 0  9995",
        "tle_line2": "2 34327  73.9940 144.2308 0033761 318.1133 120.7321 14.89499504897132"
      },
      "geometry": {
        "type": "Point",
        "coordinates": [
          160.50456178690237,
          45.6393691161998
        ]
      }
    },
    {
      "type": "Feature",
      "properties": {
        "norad_id": 34340,
        "name": "COSMOS 2251 DEB",
        "group": "cosmos-2251-debris",
        "lat": -2.3101333927984813,
        "lon": -76.38423093292964,
        "alt_km": 787.5229541108292,
        "timestamp": "2025-12-26T22:28:06.179514+00:00",
        "meta_object_name": "COSMOS 2251 DEB",
        "meta_object_id": "1993-036PN",
        "meta_epoch": "2025-12-26T19:05:53.333088",
        "meta_mean_motion": 13.79633758,
        "meta_eccentricity": 0.0284481,
        "meta_inclination": 74.079,
        "meta_ra_of_asc_node": 284.51,
        "meta_arg_of_pericenter": 29.0513,
        "meta_mean_anomaly": 353.1257,
        "meta_ephemeris_type": 0,
        "meta_classification_type": "U",
        "meta_norad_cat_id": 34340,
        "meta_element_set_no": 999,
        "meta_rev_at_epoch": 84462,
        "meta_bstar": 0.0019086,
        "meta_mean_motion_dot": 2.647e-05,
        "meta_mean_motion_ddot": 0,
        "tle_line1": "1 34340U 93036PN  25360.79575617  .00002647  00000+0  19086-2 0  9992",
        "tle_line2": "2 34340  74.0790 284.5100 0284481  29.0513 353.1257 13.79633758844622"
      },
      "geometry": {
        "type": "Point",
        "coordinates": [
          -76.38423093292964,
          -2.3101333927984813
        ]
      }
    }
  ]
}